SINOD-D 3               
1 40977U 15058P   26068.81223977  .00006149  00000+0  52531-3 0  9995
2 40977  64.7724 225.9436 0118521  98.0775 263.3804 14.93212807 99915
LILIUM-3                
1 66770U 25276DJ  26068.70479330  .00003348  00000+0  16353-3 0  9991
2 66770  97.4313 144.1145 0001123 186.7966 173.3253 15.18939749 15326
